OBJECT_NAME,OBJECT_ID,EPOCH,MEAN_MOTION,ECCENTRICITY,INCLINATION,RA_OF_ASC_NODE,ARG_OF_PERICENTER,MEAN_ANOMALY,EPHEMERIS_TYPE,CLASSIFICATION_TYPE,NORAD_CAT_ID,ELEMENT_SET_NO,REV_AT_EPOCH,BSTAR,MEAN_MOTION_DOT,MEAN_MOTION_DDOT
SKYSAT-C1,2016-040C,2026-06-09T01:46:54.418080,15.36161908,.00040668,96.9571,192.2345,73.5041,286.6651,0,U,41601,999,55662,.21896526E-3,.7642E-4,0
LAPAN-A3,2016-040E,2026-06-09T07:02:31.841376,15.33054121,.00117147,97.1487,156.6988,51.3857,308.8433,0,U,41603,999,55360,.97841351E-4,.3055E-4,0
GAOFEN-3,2016-049A,2026-06-09T07:31:38.066592,14.42214490,.00012515,98.4017,168.2187,100.2757,259.8574,0,U,41727,999,51751,.22655692E-4,.31E-6,0
SKYSAT-C4,2016-058B,2026-06-09T07:39:14.897088,15.48340055,.00008358,96.9183,182.4216,102.9417,257.1928,0,U,41771,999,54425,.27395826E-3,.14408E-3,0
SKYSAT-C5,2016-058C,2026-06-09T01:58:57.063360,15.34353209,.00019623,97.0478,201.0848,2.7581,357.3674,0,U,41772,999,54250,.19490432E-3,.6409E-4,0
SKYSAT-C2,2016-058D,2026-06-09T00:25:37.827552,15.41883308,.00050881,97.0174,182.4213,87.9242,272.2588,0,U,41773,999,54379,.25029405E-3,.10553E-3,0
SKYSAT-C3,2016-058E,2026-06-09T02:03:33.571008,15.52190679,.0001881,96.9014,191.2470,82.3638,277.7830,0,U,41774,999,54485,.30335309E-3,.18301E-3,0
ALSAT-1B,2016-059C,2026-06-09T06:55:22.251936,14.72270045,.00077397,97.7756,169.3932,250.4895,109.5478,0,U,41785,999,51941,.10363504E-3,.607E-5,0
PATHFINDER 1,2016-059E,2026-06-09T05:28:18.561504,14.67654027,.00272564,97.8166,159.8634,229.7944,130.0876,0,U,41787,999,51854,.10015767E-3,.526E-5,0
SCATSAT 1,2016-059H,2026-06-09T02:20:32.122464,14.79508321,.00532856,98.1193,223.7802,274.2510,85.2613,0,U,41790,999,10039,.1267191E-3,.912E-5,0
GOKTURK 1A,2016-073A,2026-06-09T07:27:38.336832,14.62769489,.00014598,98.1254,55.1082,75.9332,284.2032,0,U,41875,999,50767,.10014432E-3,.464E-5,0
RESOURCESAT-2A,2016-074A,2026-06-09T07:53:24.669600,14.21614401,.00033454,98.7520,233.8971,98.3423,261.8134,0,U,41877,999,49318,.13458527E-3,.251E-5,0
CARTOSAT-2D,2017-008A,2026-06-09T07:41:59.737056,15.19273127,.00036082,97.4105,219.7736,266.1534,93.9288,0,U,41948,999,51638,.19314855E-3,.4006E-4,0
SENTINEL-2B,2017-013A,2026-06-09T07:19:45.244128,14.30815029,.00012097,98.5685,235.1908,85.3632,274.7689,0,U,42063,999,48351,.62271777E-4,.12E-5,0
CARTOSAT-2E,2017-036C,2026-06-09T06:32:29.877792,15.19263046,.00030032,97.4276,220.2050,356.1774,3.9438,0,U,42767,999,49694,.21967281E-3,.4564E-4,0
FORMOSAT-5,2017-049A,2026-06-09T04:35:08.796192,14.50895902,.00126673,98.2253,235.6783,106.3727,253.8862,0,U,42920,999,46551,.47609487E-4,.144E-5,0
SENTINEL-5P,2017-064A,2026-06-09T02:18:13.320864,14.19517621,.00009946,98.7924,102.2849,81.5222,278.6066,0,U,42969,999,44841,.43067289E-4,.46E-6,0
SKYSAT-C11,2017-068A,2026-06-09T03:44:18.224736,15.57476296,.00010309,97.4341,308.6409,87.8492,272.2882,0,U,42987,999,48199,.33006934E-3,.24174E-3,0
SKYSAT-C10,2017-068B,2026-06-08T21:08:08.975616,15.34497586,.0001244,97.4493,296.6487,90.0807,270.0578,0,U,42988,999,48108,.26564294E-3,.8797E-4,0
SKYSAT-C9,2017-068C,2026-06-09T04:32:46.710528,15.41362625,.00090338,97.4413,297.8193,158.6311,201.5315,0,U,42989,999,48152,.28341887E-3,.1176E-3,0
SKYSAT-C8,2017-068D,2026-06-09T03:00:02.126304,15.36816648,.00015741,97.4510,296.6646,98.3915,261.7507,0,U,42990,999,48107,.26189413E-3,.9342E-4,0
SKYSAT-C7,2017-068E,2026-06-09T07:31:44.982912,15.36769001,.00070321,97.4520,297.8449,129.7404,230.4461,0,U,42991,999,48116,.26543968E-3,.9462E-4,0
SKYSAT-C6,2017-068F,2026-06-09T02:58:39.834624,15.34069689,.00039787,97.4556,297.6518,158.9117,201.2290,0,U,42992,999,48108,.24839358E-3,.811E-4,0
CARTOSAT-2F,2018-004A,2026-06-08T10:45:21.335040,15.19309472,.00000418,97.4787,219.1684,272.9757,87.1473,0,U,43111,999,46600,.24903257E-3,.519E-4,0
GAOFEN-1 02,2018-031A,2026-06-09T07:14:14.413344,14.76471156,.00043238,98.0525,222.8505,50.7670,309.3922,0,U,43259,999,44153,.10035764E-3,.647E-5,0
GAOFEN-1 03,2018-031B,2026-06-09T06:42:49.566240,14.76457684,.00038241,98.0525,222.6879,94.7343,265.4303,0,U,43260,999,44152,.98548343E-4,.634E-5,0
GAOFEN-1 04,2018-031D,2026-06-09T07:45:27.001152,14.76467157,.00022261,98.0525,222.9209,89.8091,270.3373,0,U,43262,999,44152,.64328121E-4,.396E-5,0
SENTINEL-3B,2018-039A,2026-06-09T04:40:38.934912,14.26739527,.00008433,98.6249,227.8417,78.6879,281.4396,0,U,43437,999,42298,.56314735E-4,.93E-6,0
GAOFEN-5 01,2018-043A,2026-06-09T04:24:25.117056,14.60599931,.00030375,98.4565,131.6020,97.8275,262.3270,0,U,43461,999,43052,.74007937E-4,.311E-5,0
GAOFEN-6,2018-048A,2026-06-09T01:47:54.508416,14.76624229,.0011378,97.7757,223.0567,194.8499,165.2379,0,U,43484,999,43219,.12207314E-3,.804E-5,0
