SKYSAT-C1               
1 41601U 16040C   26160.07424095  .00007642  00000+0  21897-3 0  9997
2 41601  96.9571 192.2345 0004066  73.5041 286.6651 15.36161908556621
LAPAN-A3                
1 41603U 16040E   26160.29342409  .00003055  00000+0  97841-4 0  9998
2 41603  97.1487 156.6988 0011714  51.3857 308.8433 15.33054121553601
GAOFEN-3                
1 41727U 16049A   26160.31363503  .00000031  00000+0  22656-4 0  9998
2 41727  98.4017 168.2187 0001251 100.2757 259.8574 14.42214490517516
SKYSAT-C4               
1 41771U 16058B   26160.31892242  .00014408  00000+0  27396-3 0  9992
2 41771  96.9183 182.4216 0000835 102.9417 257.1928 15.48340055544251
SKYSAT-C5               
1 41772U 16058C   26160.08260490  .00006409  00000+0  19490-3 0  9999
2 41772  97.0478 201.0848 0001962   2.7581 357.3674 15.34353209542508
SKYSAT-C2               
1 41773U 16058D   26160.01779893  .00010553  00000+0  25029-3 0  9995
2 41773  97.0174 182.4213 0005088  87.9242 272.2588 15.41883308543799
SKYSAT-C3               
1 41774U 16058E   26160.08580522  .00018301  00000+0  30335-3 0  9997
2 41774  96.9014 191.2470 0001881  82.3638 277.7830 15.52190679544851
ALSAT-1B                
1 41785U 16059C   26160.28845199  .00000607  00000+0  10364-3 0  9996
2 41785  97.7756 169.3932 0007739 250.4895 109.5478 14.72270045519416
PATHFINDER 1            
1 41787U 16059E   26160.22799261  .00000526  00000+0  10016-3 0  9994
2 41787  97.8166 159.8634 0027256 229.7944 130.0876 14.67654027518541
SCATSAT 1               
1 41790U 16059H   26160.09759401  .00000912  00000+0  12672-3 0  9994
2 41790  98.1193 223.7802 0053285 274.2510  85.2613 14.79508321100390
GOKTURK 1A              
1 41875U 16073A   26160.31086038  .00000464  00000+0  10014-3 0  9998
2 41875  98.1254  55.1082 0001459  75.9332 284.2032 14.62769489507677
RESOURCESAT-2A          
1 41877U 16074A   26160.32875775  .00000251  00000+0  13459-3 0  9996
2 41877  98.7520 233.8971 0003345  98.3423 261.8134 14.21614401493181
CARTOSAT-2D             
1 41948U 17008A   26160.32083029  .00004006  00000+0  19315-3 0  9995
2 41948  97.4105 219.7736 0003608 266.1534  93.9288 15.19273127516383
SENTINEL-2B             
1 42063U 17013A   26160.30538477  .00000120  00000+0  62272-4 0  9994
2 42063  98.5685 235.1908 0001209  85.3632 274.7689 14.30815029483512
CARTOSAT-2E             
1 42767U 17036C   26160.27256803  .00004564  00000+0  21967-3 0  9997
2 42767  97.4276 220.2050 0003003 356.1774   3.9438 15.19263046496949
FORMOSAT-5              
1 42920U 17049A   26160.19107403  .00000144  00000+0  47609-4 0  9996
2 42920  98.2253 235.6783 0012667 106.3727 253.8862 14.50895902465518
SENTINEL-5P             
1 42969U 17064A   26160.09598751  .00000046  00000+0  43067-4 0  9990
2 42969  98.7924 102.2849 0000994  81.5222 278.6066 14.19517621448412
SKYSAT-C11              
1 42987U 17068A   26160.15576649  .00024174  00000+0  33007-3 0  9993
2 42987  97.4341 308.6409 0001030  87.8492 272.2882 15.57476296481996
SKYSAT-C10              
1 42988U 17068B   26159.88065944  .00008797  00000+0  26564-3 0  9996
2 42988  97.4493 296.6487 0001244  90.0807 270.0578 15.34497586481088
SKYSAT-C9               
1 42989U 17068C   26160.18942952  .00011760  00000+0  28342-3 0  9995
2 42989  97.4413 297.8193 0009033 158.6311 201.5315 15.41362625481523
SKYSAT-C8               
1 42990U 17068D   26160.12502461  .00009342  00000+0  26189-3 0  9998
2 42990  97.4510 296.6646 0001574  98.3915 261.7507 15.36816648481079
SKYSAT-C7               
1 42991U 17068E   26160.31371508  .00009462  00000+0  26544-3 0  9994
2 42991  97.4520 297.8449 0007032 129.7404 230.4461 15.36769001481164
SKYSAT-C6               
1 42992U 17068F   26160.12407216  .00008110  00000+0  24839-3 0  9994
2 42992  97.4556 297.6518 0003978 158.9117 201.2290 15.34069689481089
CARTOSAT-2F             
1 43111U 18004A   26159.44816360  .00005190  00000+0  24903-3 0  9993
2 43111  97.4787 219.1684 0000041 272.9757  87.1473 15.19309472466006
GAOFEN-1 02             
1 43259U 18031A   26160.30155571  .00000647  00000+0  10036-3 0  9997
2 43259  98.0525 222.8505 0004323  50.7670 309.3922 14.76471156441532
GAOFEN-1 03             
1 43260U 18031B   26160.27974035  .00000634  00000+0  98548-4 0  9990
2 43260  98.0525 222.6879 0003824  94.7343 265.4303 14.76457684441520
GAOFEN-1 04             
1 43262U 18031D   26160.32322918  .00000396  00000+0  64328-4 0  9999
2 43262  98.0525 222.9209 0002226  89.8091 270.3373 14.76467157441520
SENTINEL-3B             
1 43437U 18039A   26160.19489508  .00000093  00000+0  56315-4 0  9996
2 43437  98.6249 227.8417 0000843  78.6879 281.4396 14.26739527422986
GAOFEN-5 01             
1 43461U 18043A   26160.18362404  .00000311  00000+0  74008-4 0  9994
2 43461  98.4565 131.6020 0003037  97.8275 262.3270 14.60599931430524
GAOFEN-6                
1 43484U 18048A   26160.07493644  .00000804  00000+0  12207-3 0  9992
2 43484  97.7757 223.0567 0011378 194.8499 165.2379 14.76624229432191
